MOLNIYA 2-9             
1 07276U 74026A   14341.89811216  .00067649  11241-5  15524-2 0  1571
2 07276  62.4158 354.3785 7246721 276.7862  12.8213  2.37064919182078
MOLNIYA 2-10            
1 07376U 74056A   14339.34204620 -.00000642  00000-0  54757-3 0  8203
2 07376  61.5461  97.6954 7436761 277.1640  14.0236  2.00777942295098
MOLNIYA 1-S             
1 07392U 74060A   14340.96540418 -.00000316  00000-0  00000+0 0  3586
2 07392  10.6520 317.7309 0011346 149.9238  53.7741  1.00322848 91946
MOLNIYA 1-29            
1 07780U 75036A   14340.21559358  .00000492  00000-0  25719-3 0  3180
2 07780  61.9018 274.0364 7389880 259.2710 258.5849  2.00666314290464
MOLNIYA 2-13            
1 08015U 75063A   14337.94001732  .00001222  00000-0  11936-2 0  2621
2 08015  62.1180 280.5298 7414004 254.6783  19.5231  2.00991182288756
MOLNIYA 2-14            
1 08195U 75081A   14340.76071830 -.00000555  00000-0 -11620-2 0  4587
2 08195  61.5818 248.5318 7389310 260.2626  17.3692  2.00589212287576
MOLNIYA 3-3             
1 08425U 75105A   14339.34601995  .00000586  00000-0  45519-3 0  6975
2 08425  61.7174 275.2270 7423215 250.9462 351.1088  2.00678945286186
MOLNIYA 1-32            
1 08601U 76006A   14340.65829812 -.00000382  00000-0  00000+0 0  3501
2 08601  62.8982 344.5201 7376332 259.5800 270.7618  2.00087369284001
MOLNIYA 2-17            
1 09829U 77010A   14341.51887453 -.00001408  00000-0  00000+0 0   766
2 09829  63.2681  13.9033 7319855 245.8071 351.4856  2.00718920277142
MOLNIYA 1-36            
1 09880U 77021A   14340.02264908 -.00000800  00000-0 -80749-4 0  3294
2 09880  62.6757 341.2842 7419355 254.5608  19.4096  2.00893078174275
MOLNIYA 3-7             
1 09941U 77032A   14339.05191900 -.00000880  00000-0 -18867-2 0  2103
2 09941  62.8482 349.9274 7391677 247.8736  23.2258  2.00761483275546
MOLNIYA 3-8             
1 10455U 77105A   14338.81567253  .00001283  00000-0  47385-2 0  2199
2 10455  63.0033  50.1412 7343466 258.7993  18.2453  2.00715091271863
MOLNIYA 1-40            
1 10925U 78055A   14341.77315352 -.00000227  00000-0  00000+0 0  1698
2 10925  62.5913  82.6001 7308314 261.9914 347.7373  2.00515653267567
MOLNIYA 1-42            
1 11007U 78080A   14340.48471504  .00000700  00000-0  84595-3 0  6535
2 11007  62.4273 121.2941 7213611 253.8930  21.9647  2.31312334285754
MOLNIYA 3-10            
1 11057U 78095A   14341.76222213  .00000149  00000-0 -57229-3 0  5620
2 11057  62.5427 198.6149 7028561 259.5230  21.0894  2.34207733289166
MOLNIYA 1-44            
1 11474U 79070A   14342.22250436  .00203969  12494-5  13812-2 0  2420
2 11474  62.1096  59.2918 2624081 212.2935 164.1949 10.30669386459468
MOLNIYA 3-13            
1 11896U 80063A   14339.58604866  .00000177  00000-0  00000+0 0   844
2 11896  62.8457 173.5457 7085462 262.7154  19.0926  2.00626314251953
MOLNIYA 1-49            
1 12156U 81009A   14341.62871017 -.00000599  00000-0  00000+0 0  8923
2 12156  64.5806 175.1740 6567421 258.0656  60.8610  2.05707430164981
MOLNIYA 1-52            
1 13012U 81123A   14342.20000995 -.00000289  00000-0 -59212-1 0  9554
2 13012  64.5721 241.8983 6596041 266.7559 342.7071  2.00817085241518
MOLNIYA 1-53            
1 13070U 82015A   14341.57555073  .00000180  00000-0 -56559-2 0  5759
2 13070  62.8455 263.5556 7202475 261.1995 188.3964  2.00692740240099
MOLNIYA 3-20            
1 13875U 83015A   14341.94644007 -.00000496  00000-0 -55296-1 0  7603
2 13875  64.2309 324.1086 7000704 269.6956 346.8143  2.00835157168617
MOLNIYA 1-56            
1 13890U 83019A   14339.38788346  .00000484  00000-0  00000+0 0  2751
2 13890  64.0009   7.3283 7128869 267.2144  65.1697  1.99943652231628
MOLNIYA 1-62            
1 15214U 84089A   14340.90213400 -.00001511  00000-0 -11671-1 0  9428
2 15214  63.8482  45.9291 7247825 262.5044 264.5797  1.97951051189831
MOLNIYA 1-63            
1 15429U 84124A   14340.83654721 -.00000135  00000-0  00000+0 0  6253
2 15429  63.5254 101.5313 6808170 276.2958 345.1874  2.00874493219642
MOLNIYA 3-24            
1 15738U 85040A   14338.52249561  .00000178  00000-0  17863-1 0  4586
2 15738  64.4081 160.2017 6331938 277.6896  21.1547  2.55627615233551
MOLNIYA 3-27            
1 16393U 85117A   14342.10404213 -.00000138  00000-0 -34445-1 0  8818
2 16393  64.3033  26.9312 6882072 283.5503  15.6178  2.12399860215821
MOLNIYA 1-69            
1 17078U 86089A   14339.47042135 -.00000449  00000-0  10254+0 0  8909
2 17078  63.6810 126.1874 6804353 279.3838 163.3079  2.00729853205638
MOLNIYA 3-31            
1 17328U 87008A   14341.79457368  .00000429  00000-0 -19833-1 0  8536
2 17328  63.8097  75.3355 6954066 276.5636 344.2018  2.00631372200755
MOLNIYA 1-71            
1 18946U 88017A   14341.53974583  .00000090  00000-0 -13973-1 0  8284
2 18946  63.7673  90.2229 6979839 273.8530 147.3063  2.00659708195944
MOLNIYA 1-75            
1 19807U 89014A   14341.68864770 -.00001007  00000-0 -45088-2 0  1467
2 19807  63.4239 238.0935 7025862 283.1865  12.7807  2.00254274188971
MOLNIYA 1-80            
1 21118U 91012A   14341.65727676  .00001367  00000-0  88512-3 0  7245
2 21118  62.4947 313.6524 7413076 286.6764 338.6553  2.05187026174598
MOLNIYA 3-40            
1 21196U 91022A   14341.20805698 -.00000071  00000-0 -15669-2 0  1399
2 21196  62.7423 295.3779 7375674 288.2681   9.3603  2.02986672173858
MOLNIYA 1-81            
1 21426U 91043A   14340.43437240 -.00000153  00000-0 -63940-2 0   289
2 21426  63.1853 309.2159 7287370 283.5069 345.5529  2.00641708171986
MOLNIYA 3-41            
1 21706U 91065A   14340.48616619  .00000533  00000-0 -80553-2 0  3359
2 21706  63.6429 129.0243 6915008 281.0568 179.9499  2.04341322170735
MOLNIYA 3-42            
1 22178U 92067A   14337.31453063  .00000126  00000-0 -16546-2 0  7360
2 22178  62.9971 220.5696 7073093 288.6741 142.1238  2.20432996163830
MOLNIYA 1-86            
1 22671U 93035A   14341.42305406  .00003787  00000-0  82215-3 0  1263
2 22671  62.8565  44.7433 4996151 318.6104  36.9080  5.60364104197636
MOLNIYA 1-87            
1 22949U 93079A   14339.08072380 -.00000492  00000-0  13734-2 0  2913
2 22949  61.6510 115.2474 7396050 271.2763 274.0024  2.00632141153589
MOLNIYA 1-88            
1 23420U 94081A   14340.38423218  .00000325  00000-0  30941-3 0  4957
2 23420  62.7197 181.6575 6393143 293.7970  13.5800  3.34444666154955
MOLNIYA 3-47            
1 23642U 95042A   14340.38843014  .00000017  00000-0  95547-4 0  2445
2 23642  61.9300  91.6713 7431241 272.4159  38.1341  2.00682031141634
MOLNIYA 1-90            
1 24960U 97054A   14340.53404310  .00000730  00000-0  64975-3 0  7035
2 24960  61.9365 122.1715 7402561 272.0842  13.1550  2.04665847126547
MOLNIYA 1-91            
1 25485U 98054A   14341.57555073  .00000320  00000-0  84768-3 0  6246
2 25485  62.0853 261.4415 7395929 260.4993 192.7659  2.00728397118625
MOLNIYA 3-50            
1 25847U 99036A   14338.68634927 -.00000414  00000-0 -15097-2 0  7608
2 25847  63.0530  31.2335 7351660 258.3127  18.3490  2.00669172112909
MOLNIYA 3-51            
1 26867U 01030A   14342.16711933  .00007989  00000-0  61196-3 0  6804
2 26867  62.5806 263.0788 7127213 259.1649  17.0455  2.50406405 99423
MOLNIYA 1-93            
1 28163U 04005A   14340.90110918  .00000041  00000-0  65396-3 0  4510
2 28163  64.1612  50.8432 7427415 244.7303 135.0851  2.00627015 79122
